OBJECT_NAME,OBJECT_ID,EPOCH,MEAN_MOTION,ECCENTRICITY,INCLINATION,RA_OF_ASC_NODE,ARG_OF_PERICENTER,MEAN_ANOMALY,EPHEMERIS_TYPE,CLASSIFICATION_TYPE,NORAD_CAT_ID,ELEMENT_SET_NO,REV_AT_EPOCH,BSTAR,MEAN_MOTION_DOT,MEAN_MOTION_DDOT
NUVIEW ALPHA,2024-252B,2026-06-13T06:15:24.918912,1.00272004,.00009082,0.0578,35.6257,11.0875,225.6407,0,U,62455,999,378,0,-.203E-5,0
AGILA,2024-252C,2026-06-12T20:46:00.007104,1.00279451,.00011542,0.0594,129.8997,2.9983,231.9402,0,U,62456,999,511,0,-.166E-5,0
NUVIEW BRAVO,2024-252D,2026-06-13T06:15:24.926688,1.00271077,.000175,0.0677,151.7498,328.7754,151.7963,0,U,62457,999,375,0,-.202E-5,0
THURAYA-4,2025-001A,2026-06-12T23:40:33.242304,1.00272431,.00002211,0.0265,64.4922,186.9029,49.3681,0,U,62483,999,413,0,.152E-5,0
SHIJIAN-25 (SJ-25),2025-002A,2026-06-12T17:37:42.566016,1.00269787,.0052199,5.1022,61.1883,173.1910,58.4404,0,U,62485,999,531,0,-.339E-5,0
TJS-14,2025-017A,2026-06-13T06:23:50.073792,1.00272624,.00009478,0.7918,295.3335,288.9591,151.6177,0,U,62804,999,523,0,.128E-5,0
SPAINSAT NG I,2025-021A,2026-06-12T23:36:03.672576,1.00271206,.00003512,0.0138,328.9354,234.0638,81.3310,0,U,62852,999,394,0,.165E-5,0
QZS-6 (MICHIBIKI-6),2025-023A,2026-06-13T01:36:23.078592,1.00271827,.00017345,0.0434,65.0559,24.6652,286.2865,0,U,62876,999,490,0,-.22E-5,0
ZHONGXING-10R,2025-036A,2026-06-13T06:50:00.652992,1.00273775,.00034242,0.0339,248.0686,251.6098,334.9443,0,U,63075,999,492,0,-.34E-5,0
TJS-15,2025-045A,2026-06-12T17:04:13.550016,1.00273032,.0004716,0.2802,85.5081,296.7226,229.2467,0,U,63157,999,471,0,-.251E-5,0
TIANLIAN 2-04,2025-062A,2026-06-12T22:08:08.124864,1.00271042,.00317105,4.3864,274.5032,10.3117,28.5121,0,U,63361,999,456,0,-.118E-5,0
TJS-16,2025-064A,2026-06-12T17:35:38.507712,1.00271423,.0003394,1.0861,81.4768,289.3663,314.7352,0,U,63397,999,434,0,-.92E-6,0
TJS-17,2025-073A,2026-06-12T17:34:51.017952,1.00271871,.0002125,1.0520,82.7274,296.3314,310.2407,0,U,63524,999,424,0,-.56E-6,0
TIANLIAN 2-05,2025-084A,2026-06-13T02:59:02.740992,1.00269219,.00031938,4.4621,279.8828,145.8571,260.8399,0,U,63662,999,434,0,.14E-5,0
TJS-19,2025-097A,2026-06-12T17:37:35.848416,1.00267139,.0002268,3.2944,317.3628,240.2590,109.0600,0,U,63924,999,409,0,-.263E-5,0
CHINASAT 3B,2025-106A,2026-06-12T20:04:38.750304,1.00271191,.000284,0.0378,119.0144,2.9728,247.6578,0,U,64062,999,401,0,-.31E-6,0
SXM-10,2025-122A,2026-06-12T16:04:00.486912,1.00273166,.00016265,0.0190,24.3758,341.0707,20.3808,0,U,64290,999,363,0,-.3E-7,0
COSMOS 2589,2025-131A,2026-06-12T17:05:13.453728,1.00275647,.0000975,0.0483,81.2647,60.2039,113.8659,0,U,64467,999,351,0,-.277E-5,0
CHINASAT 9C,2025-132A,2026-06-13T01:36:53.030880,1.00270231,.00025723,0.0150,295.6407,145.1489,297.0323,0,U,64470,999,410,0,-.234E-5,0
MTG-S1,2025-143A,2026-06-13T06:17:35.672352,1.00271663,.00009695,0.6069,338.0428,13.5818,0.8796,0,U,64723,999,338,0,-.19E-6,0
DROR 1,2025-148A,2026-06-13T06:17:20.695776,1.00271633,.00025669,0.0243,48.7266,339.9170,323.2672,0,U,64784,999,325,0,-.22E-6,0
SHIYAN-29,2025-196A,2026-06-09T01:48:31.441824,1.00256520,.00109724,28.8121,18.6391,171.7452,188.2752,0,U,65486,999,279,0,-.259E-5,0
NUSANTARA LIMA (NUSANTARA 5),2025-205A,2026-06-13T02:09:38.670624,1.00267074,.00000676,0.0473,147.3321,279.1010,340.2484,0,U,65588,999,267,0,-.344E-5,0
TJS-20,2025-238A,2026-06-12T23:45:40.251744,1.00273459,.00045408,5.4795,299.5701,161.0271,219.5439,0,U,66142,999,229,0,.39E-6,0
CMS-03 (GSAT-7R),2025-249B,2026-06-13T01:31:38.534016,1.00270860,.0001548,0.0152,298.6308,139.8767,279.7796,0,U,66311,999,230,0,-.64E-6,0
VIASAT-3 F2,2025-261A,2026-06-12T14:32:05.402112,1.00268614,.00002314,0.0388,160.0568,183.0733,56.8437,0,U,66454,999,274,0,-.219E-5,0
SHIJIAN-28 (SJ-28),2025-277A,2026-06-13T06:51:52.973856,1.00264648,.00007827,4.5489,272.1983,348.4538,220.7081,0,U,66549,999,211,0,-.344E-5,0
TJS-22,2025-290A,2026-06-12T21:17:52.095264,1.00272913,.0001917,1.5387,286.5017,331.0714,29.5663,0,U,66990,999,198,0,.8E-7,0
TJS-23,2025-306A,2026-06-12T14:44:42.181440,1.00274271,.00053116,5.5981,297.5127,168.4891,191.6312,0,U,67226,999,184,0,.33E-6,0
FENGYUN 4C,2025-312A,2026-06-13T06:56:30.031008,1.00269501,.00006075,0.0490,146.8619,53.5647,298.2995,0,U,67246,999,174,0,-.311E-5,0
SHIJIAN-29A (SJ-29A),2025-315A,2026-06-13T03:07:21.778752,1.00269521,.00031122,3.3870,95.2091,25.3073,260.9870,0,U,67302,999,157,0,-.56E-6,0
SHIJIAN-29B (SJ-29B),2025-315C,2026-06-12T23:48:47.452896,1.00269412,.0003687,3.3854,95.2048,32.1876,204.3759,0,U,67403,999,164,0,-.56E-6,0
