NUVIEW ALPHA            
1 62455U 24252B   26164.26070508 -.00000203  00000+0  00000+0 0  9998
2 62455   0.0578  35.6257 0000908  11.0875 225.6407  1.00272004  3781
AGILA                   
1 62456U 24252C   26163.86527786 -.00000166  00000+0  00000+0 0  9997
2 62456   0.0594 129.8997 0001154   2.9983 231.9402  1.00279451  5117
NUVIEW BRAVO            
1 62457U 24252D   26164.26070517 -.00000202  00000+0  00000+0 0  9999
2 62457   0.0677 151.7498 0001750 328.7754 151.7963  1.00271077  3752
THURAYA-4               
1 62483U 25001A   26163.98649586  .00000152  00000+0  00000+0 0  9990
2 62483   0.0265  64.4922 0000221 186.9029  49.3681  1.00272431  4134
SHIJIAN-25 (SJ-25)      
1 62485U 25002A   26163.73452044 -.00000339  00000+0  00000+0 0  9995
2 62485   5.1022  61.1883 0052199 173.1910  58.4404  1.00269787  5316
TJS-14                  
1 62804U 25017A   26164.26655178  .00000128  00000+0  00000+0 0  9993
2 62804   0.7918 295.3335 0000947 288.9591 151.6177  1.00272624  5231
SPAINSAT NG I           
1 62852U 25021A   26163.98337584  .00000165  00000+0  00000+0 0  9998
2 62852   0.0138 328.9354 0000351 234.0638  81.3310  1.00271206  3947
QZS-6 (MICHIBIKI-6)     
1 62876U 25023A   26164.06693378 -.00000220  00000+0  00000+0 0  9995
2 62876   0.0434  65.0559 0001734  24.6652 286.2865  1.00271827  4900
ZHONGXING-10R           
1 63075U 25036A   26164.28472978 -.00000340  00000+0  00000+0 0  9999
2 63075   0.0339 248.0686 0003424 251.6098 334.9443  1.00273775  4923
TJS-15                  
1 63157U 25045A   26163.71126794 -.00000251  00000+0  00000+0 0  9990
2 63157   0.2802  85.5081 0004716 296.7226 229.2467  1.00273032  4717
TIANLIAN 2-04           
1 63361U 25062A   26163.92231626 -.00000118  00000+0  00000+0 0  9992
2 63361   4.3864 274.5032 0031710  10.3117  28.5121  1.00271042  4565
TJS-16                  
1 63397U 25064A   26163.73308458 -.00000092  00000+0  00000+0 0  9991
2 63397   1.0861  81.4768 0003394 289.3663 314.7352  1.00271423  4342
TJS-17                  
1 63524U 25073A   26163.73253493 -.00000056  00000+0  00000+0 0  9991
2 63524   1.0520  82.7274 0002125 296.3314 310.2407  1.00271871  4242
TIANLIAN 2-05           
1 63662U 25084A   26164.12433728  .00000140  00000+0  00000+0 0  9994
2 63662   4.4621 279.8828 0003193 145.8571 260.8399  1.00269219  4341
TJS-19                  
1 63924U 25097A   26163.73444269 -.00000263  00000+0  00000+0 0  9994
2 63924   3.2944 317.3628 0002268 240.2590 109.0600  1.00267139  4096
CHINASAT 3B             
1 64062U 25106A   26163.83655961 -.00000031  00000+0  00000+0 0  9996
2 64062   0.0378 119.0144 0002840   2.9728 247.6578  1.00271191  4016
SXM-10                  
1 64290U 25122A   26163.66945008 -.00000003  00000+0  00000+0 0  9991
2 64290   0.0190  24.3758 0001626 341.0707  20.3808  1.00273166  3638
COSMOS 2589             
1 64467U 25131A   26163.71196127 -.00000277  00000+0  00000+0 0  9996
2 64467   0.0483  81.2647 0000975  60.2039 113.8659  1.00275647  3517
CHINASAT 9C             
1 64470U 25132A   26164.06728045 -.00000234  00000+0  00000+0 0  9993
2 64470   0.0150 295.6407 0002572 145.1489 297.0323  1.00270231  4107
MTG-S1                  
1 64723U 25143A   26164.26221843 -.00000019  00000+0  00000+0 0  9993
2 64723   0.6069 338.0428 0000969  13.5818   0.8796  1.00271663  3383
DROR 1                  
1 64784U 25148A   26164.26204509 -.00000022  00000+0  00000+0 0  9999
2 64784   0.0243  48.7266 0002566 339.9170 323.2672  1.00271633  3252
SHIYAN-29               
1 65486U 25196A   26160.07536391 -.00000259  00000+0  00000+0 0  9996
2 65486  28.8121  18.6391 0010972 171.7452 188.2752  1.00256520  2799
NUSANTARA LIMA (NUSANT*)
1 65588U 25205A   26164.09003091 -.00000344  00000+0  00000+0 0  9997
2 65588   0.0473 147.3321 0000067 279.1010 340.2484  1.00267074  2679
TJS-20                  
1 66142U 25238A   26163.99004921  .00000039  00000+0  00000+0 0  9991
2 66142   5.4795 299.5701 0004540 161.0271 219.5439  1.00273459  2292
CMS-03 (GSAT-7R)        
1 66311U 25249B   26164.06364044 -.00000064  00000+0  00000+0 0  9994
2 66311   0.0152 298.6308 0001548 139.8767 279.7796  1.00270860  2308
VIASAT-3 F2             
1 66454U 25261A   26163.60561808 -.00000219  00000+0  00000+0 0  9994
2 66454   0.0388 160.0568 0000231 183.0733  56.8437  1.00268614  2747
SHIJIAN-28 (SJ-28)      
1 66549U 25277A   26164.28602979 -.00000344  00000+0  00000+0 0  9995
2 66549   4.5489 272.1983 0000782 348.4538 220.7081  1.00264648  2111
TJS-22                  
1 66990U 25290A   26163.88740851  .00000008  00000+0  00000+0 0  9993
2 66990   1.5387 286.5017 0001917 331.0714  29.5663  1.00272913  1986
TJS-23                  
1 67226U 25306A   26163.61437710  .00000033  00000+0  00000+0 0  9990
2 67226   5.5981 297.5127 0005311 168.4891 191.6312  1.00274271  1843
FENGYUN 4C              
1 67246U 25312A   26164.28923647 -.00000311  00000+0  00000+0 0  9992
2 67246   0.0490 146.8619 0000607  53.5647 298.2995  1.00269501  1748
SHIJIAN-29A (SJ-29A)    
1 67302U 25315A   26164.13011318 -.00000056  00000+0  00000+0 0  9991
2 67302   3.3870  95.2091 0003112  25.3073 260.9870  1.00269521  1575
SHIJIAN-29B (SJ-29B)    
1 67403U 25315C   26163.99221589 -.00000056  00000+0  00000+0 0  9999
2 67403   3.3854  95.2048 0003687  32.1876 204.3759  1.00269412  1640
